[
    {
        "Altitude(m)": 610399.5296858638,
        "Argument of Periapsis(deg)": 0.0,
        "Eccentricity": 0.0,
        "Inclination(deg)": 60.0,
        "Latitude(deg)": 52.11133728297937,
        "Longitude(deg)": -7.415839012347028,
        "Mean Anomaly(deg)": 65.4545,
        "RAAN(deg)": 45.0,
        "Satellite Name": "Test1 202",
        "Satellite Number": 202,
        "Semi-Major Axis(m)": 6980739.136638005,
        "Time(s)": 0
    },
    {
        "Altitude(m)": 610481.6813275516,
        "Argument of Periapsis(deg)": 0.00010418945913296404,
        "Eccentricity": 0.0,
        "Inclination(deg)": 60.0,
        "Latitude(deg)": 52.470941081819404,
        "Longitude(deg)": -6.633704628203495,
        "Mean Anomaly(deg)": 66.07460614546183,
        "RAAN(deg)": 44.99957995086026,
        "Satellite Name": "Test1 202",
        "Satellite Number": 202,
        "Semi-Major Axis(m)": 6980739.136638005,
        "Time(s)": 10
    }
]